MetarString
ZSNJ 311600Z VRB01MPS CAVOK M06/M07 Q1034 NOSIG
ZSNJ 311700Z VRB01MPS CAVOK M07/M07 Q1034 NOSIG
ZSNJ 311800Z VRB01MPS CAVOK M07/M08 Q1034 NOSIG
ZSNJ 171900Z 17002MPS 130V210 CAVOK M02/M04 Q1027 NOSIG
ZSNJ 312000Z 17001MPS CAVOK M07/M07 Q1032 NOSIG
ZSNJ 312000Z 17001MPS CAVOK M07/M07 Q1032 NOSIG
ZSNJ 312200Z 26002MPS CAVOK M08/M08 Q1032 NOSIG
ZSNJ 312300Z 28001MPS CAVOK M08/M08 Q1032 NOSIG
ZSNJ 041600Z 05002MPS 8000 SCT030 07/05 Q1029 NOSIG
ZSNJ 041700Z 07002MPS 9000 BKN030 07/05 Q1028 NOSIG
ZSNJ 041800Z 07003MPS 9000 OVC030 07/04 Q1028 NOSIG
ZSNJ 041900Z 06004MPS 9999 OVC030 07/03 Q1028 NOSIG
ZSNJ 042000Z 08003MPS 9999 OVC030 05/03 Q1029 NOSIG
ZSNJ 042100Z 05002MPS 010V080 9999 OVC030 06/03 Q1029 NOSIG
ZSNJ 042200Z 04002MPS 010V080 9999 OVC033 06/02 Q1030 NOSIG
ZSNJ 042300Z 04003MPS 360V080 5000 BR OVC025 05/02 Q1031 NOSIG
ZSNJ 050000Z 05003MPS 3000 BR OVC020 05/02 Q1032 NOSIG
ZSNJ 050100Z 06005MPS 010V080 2500 BR OVC016 05/02 Q1032 NOSIG
ZSNJ 050200Z 06005MPS 2500 BR OVC016 06/02 Q1033 NOSIG
ZSNJ 050300Z 06005MPS 3500 HZ SCT020 07/01 Q1031 NOSIG
ZSNJ 050400Z 05004MPS 020V080 4500 HZ BKN023 08/02 Q1031 NOSIG
ZSNJ 050500Z 05003MPS 360V080 4000 HZ BKN024 07/01 Q1030 NOSIG
ZSNJ 050600Z 03004MPS 350V070 3500 HZ BKN023 06/01 Q1030 NOSIG
ZSNJ 050700Z 04005MPS 6000 BKN023 05/M00 Q1030 NOSIG
ZSNJ 050800Z 04004MPS 010V070 9999 OVC026 05/M01 Q1032 NOSIG
ZSNJ 050900Z 06005MPS 010V080 9999 OVC030 04/M02 Q1032 NOSIG
ZSNJ 051000Z 05004MPS 9999 OVC030 03/M02 Q1032 NOSIG
ZSNJ 051100Z 06005MPS 020V080 9999 BKN036 03/M02 Q1033 NOSIG
ZSNJ 051200Z 05004MPS 020V080 9999 OVC033 03/M03 Q1034 NOSIG
ZSNJ 051300Z 05004MPS 020V080 9999 OVC033 03/M03 Q1033 NOSIG
ZSNJ 051400Z 06003MPS 030V090 9999 OVC033 03/M03 Q1033 NOSIG
ZSNJ 051500Z 04003MPS 010V080 9999 OVC033 03/M03 Q1033 NOSIG
ZSNJ 231600Z 09002MPS 3500 BR SCT013 BKN026 04/03 Q1024 NOSIG
ZSNJ 231700Z VRB01MPS 3500 BR BKN013 OVC026 04/03 Q1025 NOSIG
ZSNJ 231800Z 05001MPS 3500 BR BKN013 OVC026 04/03 Q1025 NOSIG
ZSNJ 231900Z 06002MPS 4000 BR BKN013 OVC026 05/03 Q1025 NOSIG
ZSNJ 232000Z VRB01MPS 4000 BR BKN011 OVC026 05/03 Q1024 NOSIG
ZSNJ 232100Z 08002MPS 3500 BR BKN011 OVC026 05/03 Q1024 NOSIG
ZSNJ 232200Z 08004MPS 3500 BR BKN009 OVC020 04/03 Q1024 NOSIG
ZSNJ 232300Z 09004MPS 3000 BR BKN009 OVC020 04/03 Q1024 BECMG TL0050 BKN010
ZSNJ 240000Z 11005MPS 2000 BR BKN009 OVC020 04/03 Q1024 BECMG TL0150 3000 BKN010
ZSNJ 240100Z 11004MPS 1700 BR BKN009 OVC030 05/03 Q1025 BECMG TL0230 3000 BKN010 OVC033
ZSNJ 240200Z 13004MPS 2000 BR BKN009 OVC030 05/03 Q1025 BECMG TL0330 3000 BKN013
ZSNJ 240300Z 12003MPS 090V150 2200 BR BKN013 OVC026 07/04 Q1025 BECMG TL0430 3000 BKN016
ZSNJ 240400Z 09002MPS 050V120 2600 HZ SCT023 08/03 Q1025 BECMG TL0530 3000
ZSNJ 240500Z 06003MPS 030V090 2800 HZ FEW023 BKN040 08/04 Q1024 BECMG TL0630 3000
ZSNJ 240600Z 08005MPS 2800 HZ SCT026 OVC040 09/03 Q1023 BECMG TL0730 3000
ZSNJ 240700Z 09004MPS 2800 HZ OVC026 08/03 Q1023 BECMG TL0830 3000
ZSNJ 240800Z 10004MPS 2400 HZ OVC020 08/04 Q1023 NOSIG
ZSNJ 240900Z 11005MPS 2200 BR OVC020 08/05 Q1023 NOSIG
ZSNJ 240900Z 11005MPS 2200 BR OVC020 08/05 Q1023 NOSIG
ZSNJ 241100Z 09006MPS 2000 BR OVC020 08/04 Q1023 NOSIG
ZSNJ 241200Z 11004MPS 2000 BR OVC016 07/04 Q1023 BECMG TL1330 OVC013
ZSNJ 241200Z 11004MPS 2000 BR OVC016 07/04 Q1023 BECMG TL1330 OVC013
ZSNJ 241400Z 11006MPS 2000 BR OVC013 08/05 Q1023 NOSIG
ZSNJ 241500Z 10008MPS 2000 BR OVC020 08/05 Q1022 NOSIG
ZSNJ 291600Z 09002MPS 8000 NSC 01/M02 Q1026 NOSIG
ZSNJ 291700Z 10002MPS 8000 NSC 01/M02 Q1026 NOSIG
ZSNJ 291800Z 11002MPS 9000 NSC 01/M03 Q1025 NOSIG
ZSNJ 291900Z 00000MPS 8000 NSC 00/M01 Q1025 NOSIG
ZSNJ 292000Z VRB01MPS 7000 NSC M01/M01 Q1025 NOSIG
ZSNJ 292100Z 21001MPS 6000 NSC M01/M01 Q1025 NOSIG
ZSNJ 292200Z VRB01MPS 6000 NSC M01/M01 Q1025 NOSIG
ZSNJ 292300Z 03001MPS 3500 BR NSC M01/M01 Q1026 NOSIG
ZSNJ 300000Z VRB01MPS 4200 BR NSC 01/01 Q1026 NOSIG
ZSNJ 300100Z VRB01MPS 7000 NSC 04/00 Q1026 NOSIG
ZSNJ 300200Z VRB01MPS CAVOK 08/M01 Q1026 NOSIG
ZSNJ 300300Z VRB01MPS CAVOK 11/M01 Q1026 NOSIG
ZSNJ 300400Z VRB01MPS CAVOK 13/M01 Q1026 NOSIG
ZSNJ 300500Z VRB01MPS CAVOK 15/M02 Q1024 NOSIG
ZSNJ 300600Z VRB01MPS CAVOK 15/M02 Q1024 NOSIG
ZSNJ 300700Z 14002MPS 070V180 CAVOK 16/M04 Q1023 NOSIG
ZSNJ 300800Z 15003MPS 110V170 CAVOK 15/M05 Q1023 NOSIG
ZSNJ 300900Z 17002MPS CAVOK 14/M04 Q1023 NOSIG
ZSNJ 301000Z 15002MPS 100V190 CAVOK 14/M03 Q1024 NOSIG
ZSNJ 301100Z 12003MPS CAVOK 12/M01 Q1024 NOSIG
ZSNJ 301200Z 10002MPS 060V120 CAVOK 11/M00 Q1024 NOSIG
ZSNJ 301300Z 13001MPS CAVOK 10/01 Q1024 NOSIG
ZSNJ 301400Z 13002MPS CAVOK 10/00 Q1024 NOSIG
ZSNJ 301500Z VRB01MPS CAVOK 09/01 Q1024 NOSIG
ZSNJ 301600Z VRB01MPS CAVOK 09/01 Q1024 NOSIG
ZSNJ 301700Z 11002MPS CAVOK 09/02 Q1023 NOSIG
ZSNJ 301800Z VRB01MPS 8000 RA NSC 08/03 Q1023 NOSIG
ZSNJ 301900Z 35001MPS 6000 NSC 08/04 Q1023 NOSIG
ZSNJ 302000Z 00000MPS 8000 NSC 08/03 Q1023 NOSIG
ZSNJ 302100Z VRB01MPS 8000 NSC 08/04 Q1023 NOSIG
ZSNJ 302200Z 33001MPS 8000 NSC 08/05 Q1023 NOSIG
ZSNJ 302300Z 34001MPS 5000 BR NSC 08/05 Q1023 NOSIG
ZSNJ 310000Z VRB01MPS 5000 BR NSC 08/04 Q1024 NOSIG
ZSNJ 310100Z 18001MPS 5000 HZ NSC 09/04 Q1024 NOSIG
ZSNJ 310200Z 00000MPS 5000 HZ NSC 10/04 Q1024 NOSIG
ZSNJ 310300Z VRB01MPS 6000 NSC 11/02 Q1023 NOSIG
ZSNJ 310400Z 25002MPS 220V300 5000 HZ NSC 12/03 Q1022 NOSIG
ZSNJ 310400Z 25002MPS 220V300 5000 HZ NSC 12/03 Q1022 NOSIG
ZSNJ 310600Z 24004MPS CAVOK 14/01 Q1021 NOSIG
ZSNJ 310700Z 24004MPS CAVOK 14/00 Q1020 NOSIG
ZSNJ 310800Z 23003MPS CAVOK 13/02 Q1020 NOSIG
ZSNJ 310900Z 23003MPS CAVOK 12/04 Q1021 NOSIG
ZSNJ 311000Z 22002MPS CAVOK 11/05 Q1021 NOSIG
ZSNJ 311100Z 24002MPS CAVOK 11/04 Q1021 NOSIG
ZSNJ 311200Z 26002MPS 9999 OVC040 10/05 Q1022 NOSIG
ZSNJ 311300Z 30002MPS 8000 -RA OVC040 10/06 Q1022 NOSIG
ZSNJ 311400Z 30002MPS 5000 -RA BR OVC040 09/08 Q1023 TEMPO RA
ZSNJ 311500Z VRB01MPS 5000 -RA BR NSC 08/08 Q1022 NOSIG
ZSNJ 311600Z 21002MPS 4000 BR NSC 08/08 Q1022 NOSIG
ZSNJ 311700Z 20002MPS 5000 BR OVC040 08/08 Q1021 NOSIG
ZSNJ 311800Z VRB01MPS 5000 BR OVC040 08/08 Q1020 NOSIG
ZSNJ 311900Z 30002MPS 270V330 3500 -RA BR OVC046 08/08 Q1021 NOSIG
ZSNJ 312000Z VRB01MPS 3200 -RA BR OVC046 08/08 Q1021 BECMG TL2130 2000
ZSNJ 312100Z 22003MPS 3500 -RA BR OVC030 08/08 Q1021 NOSIG
ZSNJ 312200Z 25001MPS 3300 -RA BR BKN023 OVC040 08/08 Q1021 NOSIG
ZSNJ 312300Z 19002MPS 160V220 2600 BR OVC040 08/08 Q1020 NOSIG
ZSNJ 010000Z 23002MPS 1700 BR BKN017 08/08 Q1021 NOSIG
ZSNJ 010100Z 23002MPS 1800 BR SCT011 08/08 Q1021 BECMG TL0250 3000
ZSNJ 010200Z 24002MPS 2000 BR FEW010 09/09 Q1021 BECMG TL0350 3000
ZSNJ 010300Z 24002MPS 1700 BR BKN007 09/09 Q1021 BECMG TL0450 3000
ZSNJ 010400Z 25002MPS 1900 BR BKN007 10/10 Q1020 BECMG TL0550 3000 SCT010
ZSNJ 010500Z 25003MPS 1900 BR BKN007 10/09 Q1020 BECMG TL0630 3000 BKN010
ZSNJ 010600Z 23003MPS 1900 BR BKN008 10/10 Q1020 BECMG TL0730 3000 BKN010
ZSNJ 010700Z 26002MPS 230V290 2200 BR BKN040 10/09 Q1020 NOSIG
ZSNJ 010800Z 24003MPS 3000 BR NSC 10/08 Q1020 NOSIG
ZSNJ 010900Z 22002MPS 2800 BR NSC 10/09 Q1020 BECMG TL1050 3000
ZSNJ 011000Z 22003MPS 3000 BR NSC 09/09 Q1021 NOSIG
ZSNJ 011100Z 24002MPS 4000 BR NSC 09/08 Q1022 NOSIG
ZSNJ 011200Z 26002MPS 4000 BR NSC 07/07 Q1023 NOSIG
ZSNJ 011300Z 15001MPS 4500 BR NSC 07/07 Q1023 NOSIG
ZSNJ 011400Z 31002MPS 3000 BR NSC 06/06 Q1024 NOSIG
ZSNJ 011500Z VRB01MPS 1400 R24/P2000N R25/P2000N BCFG BR FEW017 05/05 Q1025 BECMG TL1630 2000
ZSNJ 011600Z 34001MPS 1000 R24/1900 R25/P2000N MIFG BR NSC 03/03 Q1025 BECMG TL1630 2000
ZSNJ 011700Z 06002MPS 3000 BR SCT015 07/07 Q1026 NOSIG
ZSNJ 011800Z 10003MPS 5000 BR BKN023 07/03 Q1027 NOSIG
ZSNJ 011900Z 07002MPS 6000 OVC033 04/02 Q1027 NOSIG
ZSNJ 012000Z 06002MPS 6000 OVC033 05/01 Q1028 NOSIG
ZSNJ 012100Z 07004MPS 6000 OVC033 04/01 Q1028 NOSIG
ZSNJ 012200Z 06002MPS 5000 BR OVC020 04/02 Q1028 NOSIG
ZSNJ 012300Z 09005MPS 3500 BR OVC015 05/03 Q1029 NOSIG
ZSNJ 020000Z 07005MPS 2800 BR OVC018 05/03 Q1030 BECMG TL0130 3000
ZSNJ 020100Z 07006MPS 2800 BR OVC020 05/03 Q1030 NOSIG
ZSNJ 020200Z 07005MPS 3000 BR OVC017 06/03 Q1030 NOSIG
ZSNJ 020300Z 07003MPS 3000 BR OVC020 06/03 Q1030 NOSIG
ZSNJ 020300Z 07003MPS 3000 BR OVC020 06/03 Q1030 NOSIG
ZSNJ 020500Z 08002MPS 050V130 3000 HZ OVC020 08/03 Q1029 NOSIG
ZSNJ 020600Z 08003MPS 050V110 3000 HZ OVC021 08/03 Q1028 NOSIG
ZSNJ 020700Z 09002MPS 060V150 3000 HZ BKN023 09/04 Q1028 NOSIG
ZSNJ 020800Z 12002MPS 070V180 3000 HZ BKN023 09/03 Q1027 NOSIG
ZSNJ 020900Z 11003MPS 3000 HZ SCT023 08/03 Q1027 NOSIG
ZSNJ 021000Z 17002MPS 120V180 3000 BR BKN023 06/03 Q1028 BECMG TL1130 2900
ZSNJ 021100Z 17002MPS 120V180 2800 BR SCT027 06/03 Q1028 BECMG TL1230 3000
ZSNJ 021200Z 07002MPS 3000 BR SCT030 04/03 Q1027 BECMG TL1340 2800
ZSNJ 021300Z 07002MPS 040V100 2500 BR SCT030 04/03 Q1027 NOSIG
ZSNJ 021400Z 00000MPS 2000 BR SCT023 03/03 Q1027 NOSIG
ZSNJ 021500Z 00000MPS 1500 BCFG BR NSC 02/02 Q1027 BECMG TL1630 1400
ZSNJ 091600Z 07002MPS CAVOK 07/03 Q1024 NOSIG
ZSNJ 091700Z VRB01MPS CAVOK 06/03 Q1024 NOSIG
ZSNJ 091800Z 06002MPS CAVOK 06/03 Q1023 NOSIG
ZSNJ 091900Z 07002MPS CAVOK 05/03 Q1023 NOSIG
ZSNJ 092000Z 07002MPS CAVOK 05/03 Q1023 NOSIG
ZSNJ 092100Z 06002MPS 7000 NSC 05/05 Q1023 NOSIG
ZSNJ 092200Z 07002MPS 5000 BR NSC 04/04 Q1022 NOSIG
ZSNJ 092300Z 05002MPS 020V080 5000 BR NSC 05/05 Q1023 NOSIG
ZSNJ 100000Z VRB01MPS 5000 BR NSC 06/06 Q1025 NOSIG
ZSNJ 100100Z VRB01MPS 6000 NSC 07/06 Q1025 NOSIG
ZSNJ 100200Z 07002MPS 7000 NSC 08/06 Q1024 NOSIG
ZSNJ 100300Z 09002MPS 050V120 CAVOK 10/05 Q1024 NOSIG
ZSNJ 100400Z 08002MPS 010V170 CAVOK 11/05 Q1024 NOSIG
ZSNJ 100500Z 07002MPS 010V120 CAVOK 12/05 Q1023 NOSIG
ZSNJ 100600Z 09002MPS 020V190 CAVOK 13/06 Q1022 NOSIG
ZSNJ 100700Z 02002MPS 350V070 CAVOK 12/06 Q1022 NOSIG
ZSNJ 100800Z 03002MPS 360V070 CAVOK 12/06 Q1022 NOSIG
ZSNJ 100900Z 07004MPS CAVOK 12/06 Q1022 NOSIG
ZSNJ 101000Z 11004MPS CAVOK 11/05 Q1022 NOSIG
ZSNJ 101100Z 10005MPS CAVOK 11/05 Q1022 NOSIG
ZSNJ 101200Z 10004MPS CAVOK 10/05 Q1023 NOSIG
ZSNJ 101300Z 11004MPS 8000 NSC 10/05 Q1022 NOSIG
ZSNJ 101400Z 12002MPS CAVOK 10/05 Q1023 NOSIG
ZSNJ 101500Z 11004MPS 8000 NSC 10/06 Q1023 NOSIG
ZSNJ 221600Z 07005MPS CAVOK 06/01 Q1026 NOSIG
ZSNJ 221700Z 08007MPS CAVOK 06/01 Q1026 NOSIG
ZSNJ 221700Z 08007MPS CAVOK 06/01 Q1026 NOSIG
ZSNJ 221900Z 07006MPS CAVOK 05/02 Q1025 NOSIG
ZSNJ 222000Z 07006MPS CAVOK 05/02 Q1024 NOSIG
ZSNJ 222100Z 07005MPS CAVOK 05/02 Q1025 NOSIG
ZSNJ 222200Z 07006MPS CAVOK 05/02 Q1025 NOSIG
ZSNJ 222300Z 07007MPS CAVOK 05/02 Q1026 NOSIG
ZSNJ 230000Z 08006MPS CAVOK 06/02 Q1026 NOSIG
ZSNJ 230100Z 08008MPS CAVOK 08/02 Q1026 NOSIG
ZSNJ 230200Z 09007MPS CAVOK 10/02 Q1026 NOSIG
ZSNJ 230300Z 08008MPS 060V120 CAVOK 11/02 Q1025 NOSIG
ZSNJ 230400Z 09008MPS CAVOK 13/01 Q1024 NOSIG
ZSNJ 230500Z 10007MPS CAVOK 14/00 Q1023 NOSIG
ZSNJ 230600Z 11008MPS CAVOK 15/M00 Q1021 NOSIG
ZSNJ 230600Z 11008MPS CAVOK 15/M00 Q1021 NOSIG
ZSNJ 230800Z 09007MPS CAVOK 14/01 Q1021 NOSIG
ZSNJ 230900Z 10007MPS CAVOK 14/01 Q1020 NOSIG
ZSNJ 231000Z 11007MPS CAVOK 13/01 Q1020 NOSIG
ZSNJ 231100Z 09006MPS CAVOK 12/02 Q1021 NOSIG
ZSNJ 231100Z 09006MPS CAVOK 12/02 Q1021 NOSIG
ZSNJ 231300Z 08009MPS CAVOK 09/02 Q1022 NOSIG
ZSNJ 231400Z 08007MPS CAVOK 08/02 Q1022 NOSIG
ZSNJ 231500Z 09007MPS CAVOK 08/02 Q1022 NOSIG
ZSNJ 250400Z 32002MPS 290V360 5000 -RA BR BKN010 OVC030 09/09 Q1016 BECMG TL0450 BKN009 OVC030
ZSNJ 281600Z 00000MPS 3500 -DZ BR SCT006 OVC033 12/12 Q1015 BECMG TL1750 2800 BKN006 OVC030
ZSNJ 281700Z 00000MPS 2900 BR BKN009 OVC033 12/12 Q1016 NOSIG
ZSNJ 281800Z VRB01MPS 2800 BR SCT011 OVC033 12/12 Q1016 NOSIG
ZSNJ 281900Z 19002MPS 160V240 2200 -RA BR SCT010 OVC026 12/12 Q1016 NOSIG
ZSNJ 282000Z 33002MPS 290V350 2500 -RA BR SCT010 OVC023 12/12 Q1015 NOSIG
ZSNJ 282100Z 31002MPS 280V350 2800 BR SCT007 OVC023 12/12 Q1016 BECMG TL2250 3000 BKN007 OVC023
ZSNJ 282200Z 28003MPS 250V310 3500 -RA BR BKN005 OVC020 11/11 Q1016 NOSIG
ZSNJ 282300Z 29003MPS 4000 -DZ BR BKN011 OVC026 11/11 Q1017 NOSIG
ZSNJ 010000Z 28003MPS 4000 -RA BR BKN010 OVC020 11/11 Q1018 BECMG TL0130 BKN009 OVC020
ZSNJ 010100Z 30002MPS 270V330 5000 -RA BR SCT010 OVC017 11/11 Q1018 BECMG TL0230 BKN013 OVC020
ZSNJ 010200Z 30002MPS 270V330 4500 -RA BR BKN010 OVC046 12/12 Q1018 BECMG TL0340 BKN015
ZSNJ 010300Z 29003MPS 5000 -RA BR BKN007 OVC017 12/12 Q1019 BECMG 36005MPS BKN012 OVC020
ZSNJ 010400Z 31005MPS 280V340 4500 -RA BR BKN007 OVC020 11/11 Q1019 BECMG TL0530 BKN010 OVC026
ZSNJ 010500Z 32005MPS 9000 -RA BKN009 OVC020 10/10 Q1019 BECMG TL0640 BKN010
ZSNJ 010600Z 35005MPS 5000 -RA BR BKN009 OVC023 09/09 Q1020 BECMG TL0750 BKN010
ZSNJ 010700Z 34005MPS 7000 -RA BKN010 OVC023 08/08 Q1021 BECMG TL0850 BKN015 OVC030
ZSNJ 010800Z 35003MPS 320V020 9999 -RA BKN010 OVC018 08/08 Q1022 BECMG TL0930 BKN015 OVC026
ZSNJ 010900Z 36003MPS 330V030 9999 -RA BKN014 07/07 Q1023 BECMG TL1030 BKN015
ZSNJ 011000Z 36003MPS 320V040 8000 -RA BKN011 OVC023 07/07 Q1024 BECMG TL1130 BKN015 OVC030
ZSNJ 011100Z 35003MPS 320V020 9999 -RA BKN011 07/06 Q1025 BECMG TL1230 BKN015
ZSNJ 011200Z 35004MPS 310V040 9999 -RA BKN014 06/05 Q1026 BECMG TL1330 BKN015
ZSNJ 011300Z 35003MPS 9999 -RA BKN011 OVC017 05/04 Q1027 BECMG TL1430 BKN015 OVC026
ZSNJ 011400Z 01003MPS 330V070 9999 BKN011 OVC020 05/04 Q1028 BECMG TL1530 BKN015 OVC026
ZSNJ 011500Z 33003MPS 300V360 8000 BKN011 OVC020 05/04 Q1028 BECMG TL1630 BKN015 OVC026
ZSNJ 081600Z 11003MPS 3000 -RA BR BKN006 OVC030 09/09 Q1024 BECMG TL1730 2500
ZSNJ 081700Z 10004MPS 2800 -RA BR BKN006 OVC030 09/09 Q1024 NOSIG
ZSNJ 081800Z 07002MPS 2500 -RA BR BKN006 OVC030 09/09 Q1024 NOSIG
ZSNJ 081900Z 05002MPS 010V090 2200 -RA BR BKN004 OVC030 09/09 Q1024 NOSIG
ZSNJ 082000Z 11003MPS 2500 -RA BR BKN004 OVC030 08/08 Q1024 NOSIG
ZSNJ 082100Z 09003MPS 2500 -RA BR BKN004 OVC030 08/08 Q1024 BECMG TL2230 3000 BKN008 OVC033
ZSNJ 082100Z 09003MPS 2500 -RA BR BKN004 OVC030 08/08 Q1024 BECMG TL2230 3000 BKN008 OVC033
ZSNJ 082300Z 09002MPS 070V130 3200 BR BKN006 OVC030 08/08 Q1025 BECMG TL0030 BKN010 OVC033
ZSNJ 082300Z 09002MPS 070V130 3200 BR BKN006 OVC030 08/08 Q1025 BECMG TL0030 BKN010 OVC033
ZSNJ 090100Z 08003MPS 3000 BR BKN008 OVC033 09/09 Q1027 BECMG TL0230 BKN010 OVC033
ZSNJ 090200Z 07004MPS 1100 R06/1400N R07/1200N -DZ BR BKN006 OVC026 09/09 Q1027 BECMG TL0330 2000 BKN010 OVC030
ZSNJ 090300Z 08004MPS 2000 BR BKN007 OVC033 09/09 Q1027 BECMG TL0430 3000 BKN010 OVC033
ZSNJ 090400Z 05002MPS 360V070 3000 BR SCT007 OVC033 09/09 Q1027 NOSIG
ZSNJ 090500Z 06003MPS 3000 BR SCT008 OVC030 10/09 Q1027 NOSIG
ZSNJ 090600Z 06002MPS 4500 BR SCT009 OVC033 10/09 Q1026 NOSIG
ZSNJ 090700Z 10002MPS 030V140 3500 BR SCT009 OVC033 10/08 Q1026 BECMG TL0830 BKN010 OVC033
ZSNJ 090800Z 08002MPS 040V110 4000 BR BKN014 11/08 Q1026 BECMG TL0930 BKN016
ZSNJ 090900Z 04002MPS 360V070 6000 BKN020 11/08 Q1026 NOSIG
ZSNJ 091000Z VRB01MPS 7000 SCT030 10/07 Q1027 NOSIG
ZSNJ 091100Z 12002MPS 7000 NSC 10/07 Q1027 NOSIG
ZSNJ 091200Z VRB01MPS 6000 BKN026 09/08 Q1028 NOSIG
ZSNJ 091300Z VRB01MPS 5000 BR SCT033 08/08 Q1029 NOSIG
ZSNJ 091400Z 10002MPS 4500 BR BKN040 08/08 Q1029 NOSIG
ZSNJ 091500Z 00000MPS 4000 BR BKN040 08/08 Q1029 BECMG TL1650 2800
ZSNJ 091600Z 00000MPS 3000 BR BKN040 07/07 Q1028 BECMG TL1650 2500
ZSNJ 091700Z VRB01MPS 3000 BR OVC040 07/07 Q1028 NOSIG
ZSNJ 091800Z 04001MPS 2500 BR OVC033 07/07 Q1028 NOSIG
ZSNJ 091900Z VRB01MPS 2800 BR OVC040 08/08 Q1028 NOSIG
ZSNJ 092000Z VRB01MPS 2800 BR OVC033 08/08 Q1027 NOSIG
ZSNJ 092100Z VRB01MPS 2800 BR OVC033 08/08 Q1028 BECMG TL2250 3000
ZSNJ 092200Z 12002MPS 090V150 2500 BR OVC033 09/09 Q1028 BECMG TL2350 3000
ZSNJ 092300Z 07005MPS 1400 R06/1900D R07/1800D BR FEW033 08/08 Q1028 BECMG TL0050 1500
ZSNJ 100000Z 08004MPS 2200 BR NSC 10/09 Q1028 BECMG TL0100 3000
ZSNJ 100100Z 11004MPS 4000 BR NSC 12/08 Q1029 NOSIG
ZSNJ 100200Z 11005MPS 8000 NSC 13/07 Q1029 NOSIG
ZSNJ 100200Z 11005MPS 8000 NSC 13/07 Q1029 NOSIG
ZSNJ 100400Z 13006MPS 100V160 9999 SCT040 16/06 Q1027 NOSIG
ZSNJ 100400Z 13006MPS 100V160 9999 SCT040 16/06 Q1027 NOSIG
ZSNJ 100600Z 11005MPS 9999 BKN040 15/06 Q1025 NOSIG
ZSNJ 100700Z 11007MPS 9999 SCT040 16/06 Q1024 NOSIG
ZSNJ 100800Z 11007MPS 9999 SCT040 15/06 Q1024 NOSIG
ZSNJ 100800Z 11007MPS 9999 SCT040 15/06 Q1024 NOSIG
ZSNJ 100800Z 11007MPS 9999 SCT040 15/06 Q1024 NOSIG
ZSNJ 101100Z 11005MPS 9999 SCT046 14/06 Q1024 NOSIG
ZSNJ 101200Z 10005MPS CAVOK 14/05 Q1024 NOSIG
ZSNJ 101300Z 11005MPS CAVOK 13/04 Q1024 NOSIG
ZSNJ 101400Z 12004MPS 9999 SCT046 13/03 Q1024 NOSIG
ZSNJ 101500Z 11004MPS 8000 -RA BKN046 13/02 Q1024 NOSIG
ZSNJ 151600Z 02002MPS 340V130 2000 BR BKN008 OVC026 15/15 Q1015 BECMG TL1730 3000
ZSNJ 151700Z 04003MPS 010V070 4000 BR BKN008 OVC033 14/14 Q1015 NOSIG
ZSNJ 151800Z 04002MPS 360V070 4000 BR SCT010 OVC040 14/14 Q1015 NOSIG
ZSNJ 151900Z 03003MPS 350V070 3500 BR SCT010 OVC040 14/14 Q1015 NOSIG
ZSNJ 152000Z 03003MPS 010V070 4000 BR FEW010 OVC040 13/13 Q1015 NOSIG
ZSNJ 152100Z 04003MPS 010V070 4000 BR OVC040 13/13 Q1016 NOSIG
ZSNJ 152200Z 05005MPS 010V080 2400 BR OVC033 12/12 Q1017 NOSIG
ZSNJ 152200Z 05005MPS 010V080 2400 BR OVC033 12/12 Q1017 NOSIG
ZSNJ 160000Z 06005MPS 2600 BR OVC040 12/11 Q1019 BECMG TL0130 3000
ZSNJ 160100Z 06004MPS 020V080 3000 BR BKN010 OVC033 12/11 Q1019 BECMG TL0230 BKN015
ZSNJ 160200Z 06005MPS 4000 BR BKN011 OVC033 13/11 Q1019 BECMG TL0350 BKN015
ZSNJ 160300Z 06006MPS 3000 BR BKN013 OVC033 13/11 Q1019 BECMG TL0430 BKN015
ZSNJ 160400Z 06004MPS 3500 BR BKN013 OVC040 14/11 Q1019 BECMG TL0530 BKN015
ZSNJ 160500Z 06005MPS 030V090 4000 BR BKN017 OVC040 14/11 Q1019 NOSIG
ZSNJ 160600Z 05004MPS 020V080 4000 BR BKN017 OVC040 14/11 Q1018 NOSIG
ZSNJ 160700Z 07006MPS 4000 BR BKN017 OVC040 14/11 Q1018 NOSIG
ZSNJ 160800Z 07007MPS 3500 BR BKN017 OVC040 13/11 Q1018 NOSIG
ZSNJ 160900Z 07007MPS 3000 BR BKN015 OVC033 12/11 Q1018 BECMG TL1030 2800 BKN013 OVC033
ZSNJ 161000Z 08005MPS 4000 BR BKN014 OVC033 12/10 Q1019 BECMG TL1030 BKN015
ZSNJ 161100Z 09004MPS 5000 BR BKN026 13/10 Q1019 NOSIG
ZSNJ 161200Z 07004MPS 5000 BR BKN030 12/10 Q1020 NOSIG
ZSNJ 161200Z 07004MPS 5000 BR BKN030 12/10 Q1020 NOSIG
ZSNJ 161400Z 08006MPS 8000 -RA SCT030 11/05 Q1020 NOSIG
ZSNJ 161500Z 09006MPS CAVOK 10/05 Q1020 NOSIG
ZSNJ 260100Z 14004MPS 110V170 CAVOK 19/08 Q1017 NOSIG
ZSNJ 260200Z 14004MPS 110V170 CAVOK 20/08 Q1016 NOSIG
ZSNJ 260300Z 18004MPS 100V210 CAVOK 23/09 Q1015 NOSIG
ZSNJ 260300Z 18004MPS 100V210 CAVOK 23/09 Q1015 NOSIG
ZSNJ 260300Z 18004MPS 100V210 CAVOK 23/09 Q1015 NOSIG
ZSNJ 260600Z 15004MPS 090V210 CAVOK 26/10 Q1011 NOSIG
ZSNJ 260700Z 19004MPS CAVOK 26/08 Q1010 NOSIG
ZSNJ 260700Z 19004MPS CAVOK 26/08 Q1010 NOSIG
ZSNJ 260900Z 14002MPS CAVOK 26/08 Q1009 NOSIG
ZSNJ 261000Z 13005MPS CAVOK 23/10 Q1009 NOSIG
ZSNJ 261100Z 12005MPS CAVOK 21/10 Q1009 NOSIG
ZSNJ 261200Z 13004MPS CAVOK 21/12 Q1010 NOSIG
ZSNJ 261300Z 13004MPS CAVOK 20/13 Q1010 NOSIG
ZSNJ 261400Z 14002MPS 080V160 CAVOK 19/14 Q1011 NOSIG
ZSNJ 261500Z VRB01MPS 8000 NSC 18/15 Q1011 NOSIG
ZSNJ 261600Z VRB01MPS 5000 -RA BR SCT046 17/17 Q1011 NOSIG
ZSNJ 261700Z 32002MPS 290V350 5000 -RA BR NSC 17/17 Q1010 NOSIG
ZSNJ 261800Z VRB01MPS 2300 -RA BR SCT033 17/17 Q1010 NOSIG
ZSNJ 261900Z 25002MPS 1800 -RA BR NSC 16/16 Q1009 NOSIG
ZSNJ 262000Z VRB01MPS 2000 -RA BR OVC046 16/16 Q1008 NOSIG
ZSNJ 262100Z 26002MPS 1400 R24/P2000N R07/P2000N -RA BR BKN005 OVC046 16/16 Q1008 NOSIG
ZSNJ 262200Z 26002MPS 1500 BR BKN009 OVC046 16/16 Q1008 BECMG TL2350 3000 BKN010 OVC046
ZSNJ 262300Z 26002MPS 1000 R24/1900N R07/1400D BR OVC020 16/16 Q1008 BECMG TL2330 1500
ZSNJ 262300Z 26002MPS 1000 R24/1900N R07/1400D BR OVC020 16/16 Q1008 BECMG TL2330 1500
ZSNJ 270100Z 29003MPS 1000 R24/1800U R25/1500U -DZ BR BKN004 OVC026 16/16 Q1009 BECMG TL0230 1500 BKN006 OVC026
ZSNJ 270200Z 30003MPS 270V330 9999 BKN010 OVC046 15/15 Q1010 BECMG SCT012 OVC030
ZSNJ 270200Z 30003MPS 270V330 9999 BKN010 OVC046 15/15 Q1010 BECMG SCT012 OVC030
ZSNJ 270400Z 29004MPS 260V320 9999 BKN015 OVC046 15/14 Q1010 NOSIG
ZSNJ 270500Z 28004MPS 9999 BKN015 OVC046 16/14 Q1009 NOSIG
ZSNJ 270600Z 29004MPS 9999 BKN016 OVC040 16/13 Q1009 NOSIG
ZSNJ 270700Z 29004MPS 270V330 9999 BKN016 OVC040 16/13 Q1009 NOSIG
ZSNJ 270800Z 30003MPS 270V330 9999 BKN016 OVC040 16/13 Q1009 NOSIG
ZSNJ 270900Z 29003MPS 9999 SCT040 17/13 Q1009 NOSIG
ZSNJ 271000Z 29002MPS 260V320 9999 BKN023 16/12 Q1009 NOSIG
ZSNJ 271100Z 26001MPS 9999 SCT030 15/13 Q1010 NOSIG
ZSNJ 271200Z 34001MPS 9999 SCT040 14/14 Q1010 NOSIG
ZSNJ 271300Z 21001MPS CAVOK 13/13 Q1010 NOSIG
ZSNJ 271400Z 26002MPS 240V300 8000 NSC 13/13 Q1011 NOSIG
ZSNJ 271500Z 29001MPS 8000 NSC 12/12 Q1010 NOSIG
ZSNJ 271600Z VRB01MPS 5000 BR NSC 11/11 Q1010 NOSIG
ZSNJ 271600Z VRB01MPS 5000 BR NSC 11/11 Q1010 NOSIG
ZSNJ 271800Z 24002MPS 1800 MIFG BR NSC 11/11 Q1009 BECMG TL1930 1400
ZSNJ 271900Z 25003MPS 1000 R24/0200V0450N R25/1000V1700U MIFG BR SCT002 12/12 Q1009 NOSIG
ZSNJ 272000Z 24003MPS 0700 R24/1700D R25/0650V1400U FG SCT001 13/13 Q1009 NOSIG
ZSNJ 272100Z 25003MPS 0600 R24/0650N R25/0750 FG SCT001 13/13 Q1009 BECMG TL2230 0800
ZSNJ 272200Z 24003MPS 0600 R24/1500D R25/0275 FG BKN001 12/12 Q1009 BECMG TL2330 1000 BR NSC
ZSNJ 272300Z 23004MPS 0600 R24/0700V1200N R25/0550 FG BKN001 13/13 Q1009 BECMG TL0030 1000 BR NSC
ZSNJ 280000Z 23004MPS 1400 R24/1800U R25/1200U BR BKN003 14/14 Q1010 BECMG TL0130 3000 NSC
ZSNJ 280100Z 24004MPS 2200 BR BKN006 OVC026 15/15 Q1010 BECMG TL0230 3000 BKN010 OVC030
ZSNJ 280200Z 23005MPS 3000 BR SCT009 BKN033 17/15 Q1011 NOSIG
ZSNJ 280300Z 24005MPS 4000 BR BKN017 19/15 Q1010 NOSIG
ZSNJ 280400Z 24005MPS 220V280 4500 HZ SCT017 21/15 Q1009 NOSIG
ZSNJ 280500Z 24005MPS 210V280 6000 NSC 23/14 Q1009 NOSIG
ZSNJ 280600Z 23004MPS 200V270 7000 NSC 24/14 Q1008 NOSIG
ZSNJ 280700Z 25004MPS 220V280 CAVOK 25/12 Q1007 NOSIG
ZSNJ 280800Z 26004MPS 230V300 CAVOK 25/07 Q1007 NOSIG
ZSNJ 280900Z 24004MPS CAVOK 24/07 Q1007 NOSIG
ZSNJ 281000Z 23003MPS CAVOK 21/08 Q1007 NOSIG
ZSNJ 281100Z 20002MPS CAVOK 20/09 Q1007 NOSIG
ZSNJ 281200Z 24002MPS CAVOK 17/09 Q1008 NOSIG
ZSNJ 281300Z VRB01MPS CAVOK 15/12 Q1008 NOSIG
ZSNJ 281400Z VRB01MPS CAVOK 15/10 Q1009 NOSIG
ZSNJ 281400Z VRB01MPS CAVOK 15/10 Q1009 NOSIG
ZSNJ 281600Z 06002MPS CAVOK 12/12 Q1009 NOSIG
ZSNJ 281700Z 00000MPS CAVOK 12/12 Q1008 NOSIG
ZSNJ 281800Z VRB01MPS 8000 NSC 11/11 Q1008 NOSIG
ZSNJ 281900Z VRB01MPS 7000 NSC 11/11 Q1008 NOSIG
ZSNJ 282000Z VRB01MPS 5000 BR NSC 10/10 Q1008 NOSIG
ZSNJ 282100Z 33001MPS 5000 BR NSC 10/10 Q1008 NOSIG
ZSNJ 282200Z 00000MPS 4000 MIFG BR NSC 10/10 Q1008 NOSIG
ZSNJ 282300Z 03002MPS 5000 BR NSC 12/12 Q1009 NOSIG
ZSNJ 290000Z 08004MPS 6000 NSC 16/14 Q1009 NOSIG
ZSNJ 290100Z 09004MPS 060V120 5000 HZ NSC 20/14 Q1009 NOSIG
ZSNJ 290200Z 08005MPS 5000 HZ NSC 21/13 Q1008 NOSIG
ZSNJ 290300Z 09004MPS 060V120 5000 HZ NSC 23/14 Q1007 NOSIG
ZSNJ 290400Z 11003MPS 040V170 5000 HZ BKN033 24/14 Q1006 NOSIG
ZSNJ 290500Z 10004MPS 070V140 5000 HZ BKN033 25/14 Q1005 NOSIG
ZSNJ 290600Z VRB01MPS 5000 HZ SCT033 26/13 Q1004 NOSIG
ZSNJ 290700Z 13003MPS 070V160 6000 SCT033 27/11 Q1004 NOSIG
ZSNJ 290700Z 13003MPS 070V160 6000 SCT033 27/11 Q1004 NOSIG
ZSNJ 290900Z 08006MPS 9999 BKN040 25/14 Q1003 NOSIG
ZSNJ 291000Z 06006MPS 5000 HZ FEW040 22/14 Q1003 NOSIG
ZSNJ 291100Z 06004G09MPS 020V080 6000 SCT040 21/12 Q1004 NOSIG
ZSNJ 291200Z 05004MPS 5000 HZ NSC 20/13 Q1005 NOSIG
ZSNJ 291300Z 07005MPS 5000 HZ NSC 19/13 Q1006 NOSIG
ZSNJ 291400Z 07004MPS 4500 HZ NSC 18/12 Q1006 NOSIG
ZSNJ 291500Z 05004MPS 020V080 4000 HZ NSC 18/13 Q1007 NOSIG
ZSNJ 311200Z 05004MPS 010V080 3500 -DZ BR BKN010 BKN026 14/14 Q1008 BECMG TL1300 BKN007 OVC030 FEW033CB
ZSNJ 311600Z 05002MPS 010V070 3500 BR BKN005 BKN030 FEW040CB 14/14 Q1008 BECMG TL1630 -TSRA
ZSNJ 311700Z 05003MPS 010V080 4000 -SHRA BR BKN005 BKN030 FEW040CB 14/14 Q1008 BECMG TL1730 TSRA
ZSNJ 311800Z 06004MPS 4000 -SHRA BR BKN005 BKN033 FEW040CB 13/13 Q1008 RETSRA NOSIG
ZSNJ 311900Z 06004MPS 4500 -SHRA BR BKN006 BKN033 FEW040CB 13/13 Q1008 NOSIG
ZSNJ 312000Z 09006MPS 5000 -SHRA BR BKN006 BKN033 FEW040CB 13/13 Q1007 NOSIG
ZSNJ 312100Z 05002MPS 010V070 3500 -SHRA BR BKN005 BKN026 FEW033CB 13/13 Q1008 RESHRA NOSIG
ZSNJ 312200Z VRB01MPS 2200 RA BR BKN005 OVC020 13/13 Q1008 BECMG TL2250 3000 -RA
ZSNJ 312300Z 05002MPS 010V070 3200 -RA BR BKN005 OVC020 13/13 Q1009 RERA BECMG TL0030 BKN010 OVC030
ZSNJ 301600Z 07002MPS CAVOK 19/11 Q1008 NOSIG
ZSNJ 301700Z 03002MPS CAVOK 19/09 Q1008 NOSIG
ZSNJ 301800Z VRB01MPS CAVOK 17/09 Q1009 NOSIG
ZSNJ 301900Z VRB01MPS CAVOK 16/10 Q1010 NOSIG
ZSNJ 302000Z 34002MPS 310V020 CAVOK 16/10 Q1010 NOSIG
ZSNJ 302100Z VRB01MPS CAVOK 16/10 Q1011 NOSIG
ZSNJ 302200Z 33001MPS CAVOK 15/10 Q1012 NOSIG
ZSNJ 302200Z 33001MPS CAVOK 15/10 Q1012 NOSIG
ZSNJ 010000Z 32002MPS 250V360 CAVOK 18/11 Q1014 NOSIG
ZSNJ 010100Z 27002MPS 210V330 CAVOK 20/10 Q1014 NOSIG
ZSNJ 010200Z VRB02MPS CAVOK 22/09 Q1014 NOSIG
ZSNJ 010300Z 33002MPS 270V060 CAVOK 23/06 Q1014 NOSIG
ZSNJ 010400Z VRB02MPS CAVOK 25/05 Q1013 NOSIG
ZSNJ 010500Z VRB01MPS CAVOK 26/04 Q1013 NOSIG
ZSNJ 010600Z 26004MPS 210V330 CAVOK 27/04 Q1012 NOSIG
ZSNJ 010700Z 17004MPS 130V200 CAVOK 26/08 Q1011 NOSIG
ZSNJ 010800Z 17004MPS 130V210 CAVOK 26/07 Q1010 NOSIG
ZSNJ 010900Z 16003MPS 140V200 CAVOK 25/08 Q1010 NOSIG
ZSNJ 011000Z 17003MPS CAVOK 24/08 Q1010 NOSIG
ZSNJ 011100Z 17002MPS CAVOK 22/08 Q1011 NOSIG
ZSNJ 011200Z 14002MPS CAVOK 20/11 Q1012 NOSIG
ZSNJ 011300Z VRB01MPS CAVOK 17/12 Q1012 NOSIG
ZSNJ 011400Z 06004MPS CAVOK 19/10 Q1013 NOSIG
ZSNJ 011500Z 07006MPS CAVOK 18/09 Q1013 NOSIG
ZSNJ 171600Z VRB01MPS CAVOK 19/18 Q1012 NOSIG
ZSNJ 171600Z VRB01MPS CAVOK 19/18 Q1012 NOSIG
ZSNJ 171800Z 22001MPS 8000 -RA NSC 19/18 Q1012 NOSIG
ZSNJ 171900Z 25002MPS 7000 NSC 18/17 Q1012 NOSIG
ZSNJ 172000Z 25001MPS 6000 NSC 18/17 Q1012 NOSIG
ZSNJ 172100Z 27001MPS 4000 BR NSC 18/18 Q1013 NOSIG
ZSNJ 172200Z VRB01MPS 2000 BR NSC 18/18 Q1012 NOSIG
ZSNJ 172300Z 00000MPS 4000 BR NSC 19/17 Q1013 NOSIG
ZSNJ 180000Z 14002MPS 100V190 5000 BR NSC 20/17 Q1013 NOSIG
ZSNJ 180000Z 14002MPS 100V190 5000 BR NSC 20/17 Q1013 NOSIG
ZSNJ 180200Z 16002MPS 050V220 6000 FEW033 23/15 Q1013 NOSIG
ZSNJ 180300Z 15003MPS 120V190 8000 SCT030 24/14 Q1012 NOSIG
ZSNJ 180400Z 18004MPS 9999 BKN030 23/14 Q1012 NOSIG
ZSNJ 180500Z 19002MPS 130V240 CAVOK 24/14 Q1012 NOSIG
ZSNJ 180600Z 15002MPS 120V210 CAVOK 24/14 Q1011 NOSIG
ZSNJ 180600Z 15002MPS 120V210 CAVOK 24/14 Q1011 NOSIG
ZSNJ 180800Z 18002MPS 150V210 8000 NSC 23/16 Q1010 NOSIG
ZSNJ 180900Z 19002MPS 150V220 9000 BKN046 23/15 Q1010 NOSIG
ZSNJ 181000Z VRB01MPS 8000 BKN046 22/17 Q1010 NOSIG
ZSNJ 181100Z VRB01MPS 8000 BKN046 22/16 Q1010 NOSIG
ZSNJ 181200Z VRB01MPS 7000 NSC 21/17 Q1011 NOSIG
ZSNJ 181300Z VRB01MPS 6000 FEW033 20/19 Q1011 NOSIG
ZSNJ 181400Z 13002MPS 6000 FEW033 20/18 Q1011 NOSIG
ZSNJ 181500Z 13002MPS 7000 FEW040 19/17 Q1011 NOSIG
ZSNJ 181500Z 13002MPS 7000 FEW040 19/17 Q1011 NOSIG
ZSNJ 241600Z 28001MPS 5000 BR NSC 19/19 Q1011 NOSIG
ZSNJ 260700Z VRB01MPS 8000 -RA BKN007 OVC026 19/19 Q1003 NOSIG
ZSNJ 311600Z 13003MPS 080V160 CAVOK 23/15 Q1006 NOSIG
ZSNJ 311700Z 11003MPS CAVOK 22/16 Q1007 NOSIG
ZSNJ 311800Z 08001MPS CAVOK 21/16 Q1006 NOSIG
ZSNJ 311900Z 09002MPS 070V130 CAVOK 20/17 Q1006 NOSIG
ZSNJ 312000Z 07003MPS CAVOK 19/19 Q1006 NOSIG
ZSNJ 312100Z VRB01MPS 7000 NSC 19/19 Q1006 NOSIG
ZSNJ 312200Z 06002MPS 7000 NSC 20/20 Q1007 NOSIG
ZSNJ 312300Z 08004MPS 9000 NSC 23/21 Q1007 NOSIG
